start=new Date('2022-12-27T00:00:00.000Z').valueOf();
sats=[{"EPOCH":"2022-12-26T11:54:53.540064","APOAPSIS":"541.783","MEAN_MOTION_DDOT":"0.0000000000000","ARG_OF_PERICENTER":"25.7900","OBJECT_NAME":"STARLINK-3240","REV_AT_EPOCH":"5888","CLASSIFICATION_TYPE":"U","SEMIMAJOR_AXIS":"6917.861","MEAN_ELEMENT_THEORY":"SGP4","TIME_SYSTEM":"UTC","MEAN_MOTION_DOT":"0.00001505","CENTER_NAME":"EARTH","NORAD_CAT_ID":"49728","MEAN_MOTION":"15.08846358","PERIAPSIS":"537.669","LAUNCH_DATE":"2021-12-02","EPHEMERIS_TYPE":"0","RCS_SIZE":"LARGE","GP_ID":"221492687","COUNTRY_CODE":"US","SITE":"AFETR","RA_OF_ASC_NODE":"7.8310","BSTAR":"0.00011266000000","ELEMENT_SET_NO":"999","INCLINATION":"53.2169","DECAY_DATE":null,"REF_FRAME":"TEME","OBJECT_ID":"2021-115E","ECCENTRICITY":"0.00029730","TLE_LINE2":"2 49728  53.2169   7.8310 0002973  25.7900 334.3240 15.08846358 58887","MEAN_ANOMALY":"334.3240","TLE_LINE1":"1 49728U 21115E   22360.49645301  .00001505  00000-0  11266-3 0  9995","FILE":"3722937","PERIOD":"95.437","OBJECT_TYPE":"PAYLOAD"},{"SEMIMAJOR_AXIS":"6917.874","MEAN_ELEMENT_THEORY":"SGP4","NORAD_CAT_ID":"49729","MEAN_MOTION":"15.08842075","CENTER_NAME":"EARTH","MEAN_MOTION_DOT":"-0.00000759","TIME_SYSTEM":"UTC","MEAN_MOTION_DDOT":"0.0000000000000","ARG_OF_PERICENTER":"33.3739","APOAPSIS":"541.501","EPOCH":"2022-12-26T10:24:48.372480","REV_AT_EPOCH":"5887","CLASSIFICATION_TYPE":"U","OBJECT_NAME":"STARLINK-3251","MEAN_ANOMALY":"326.7413","TLE_LINE1":"1 49729U 21115F   22360.43389320 -.00000759  00000-0 -29537-4 0  9999","FILE":"3722937","OBJECT_ID":"2021-115F","REF_FRAME":"TEME","ECCENTRICITY":"0.00025470","TLE_LINE2":"2 49729  53.2183   8.1221 0002547  33.3739 326.7413 15.08842075 58879","DECAY_DATE":null,"INCLINATION":"53.2183","OBJECT_TYPE":"PAYLOAD","PERIOD":"95.437","COUNTRY_CODE":"US","GP_ID":"221491437","LAUNCH_DATE":"2021-12-02","PERIAPSIS":"537.977","RCS_SIZE":"LARGE","EPHEMERIS_TYPE":"0","ELEMENT_SET_NO":"999","BSTAR":"-0.00002953700000","RA_OF_ASC_NODE":"8.1221","SITE":"AFETR"},{"PERIOD":"95.437","OBJECT_TYPE":"PAYLOAD","INCLINATION":"53.2173","DECAY_DATE":null,"TLE_LINE2":"2 49730  53.2173   8.0744 0002566  31.1382 328.9762 15.08842359 59989","ECCENTRICITY":"0.00025660","REF_FRAME":"TEME","OBJECT_ID":"2021-115G","TLE_LINE1":"1 49730U 21115G   22360.44125386  .00000751  00000-0  65313-4 0  9994","MEAN_ANOMALY":"328.9762","FILE":"3723149","SITE":"AFETR","RA_OF_ASC_NODE":"8.0744","BSTAR":"0.00006531300000","ELEMENT_SET_NO":"999","RCS_SIZE":"LARGE","EPHEMERIS_TYPE":"0","PERIAPSIS":"537.963","LAUNCH_DATE":"2021-12-02","GP_ID":"221500108","COUNTRY_CODE":"US","TIME_SYSTEM":"UTC","MEAN_MOTION_DOT":"0.00000751","CENTER_NAME":"EARTH","MEAN_MOTION":"15.08842359","NORAD_CAT_ID":"49730","SEMIMAJOR_AXIS":"6917.873","MEAN_ELEMENT_THEORY":"SGP4","OBJECT_NAME":"STARLINK-3249","CLASSIFICATION_TYPE":"U","REV_AT_EPOCH":"5998","EPOCH":"2022-12-26T10:35:24.333504","APOAPSIS":"541.513","ARG_OF_PERICENTER":"31.1382","MEAN_MOTION_DDOT":"0.0000000000000"},{"LAUNCH_DATE":"2021-12-02","PERIAPSIS":"537.783","EPHEMERIS_TYPE":"0","RCS_SIZE":"LARGE","COUNTRY_CODE":"US","GP_ID":"221525967","SITE":"AFETR","ELEMENT_SET_NO":"999","BSTAR":"-0.00004226900000","RA_OF_ASC_NODE":"6.9059","DECAY_DATE":null,"INCLINATION":"53.2191","TLE_LINE1":"1 49731U 21115H   22360.70254037 -.00000961  00000-0 -42269-4 0  9990","FILE":"3723236","MEAN_ANOMALY":"335.0408","REF_FRAME":"TEME","OBJECT_ID":"2021-115H","ECCENTRICITY":"0.00028780","TLE_LINE2":"2 49731  53.2191   6.9059 0002878  25.0724 335.0408 15.08830558 58910","PERIOD":"95.438","OBJECT_TYPE":"PAYLOAD","EPOCH":"2022-12-26T16:51:39.487968","MEAN_MOTION_DDOT":"0.0000000000000","ARG_OF_PERICENTER":"25.0724","APOAPSIS":"541.765","OBJECT_NAME":"STARLINK-3228","REV_AT_EPOCH":"5891","CLASSIFICATION_TYPE":"U","SEMIMAJOR_AXIS":"6917.909","MEAN_ELEMENT_THEORY":"SGP4","CENTER_NAME":"EARTH","TIME_SYSTEM":"UTC","MEAN_MOTION_DOT":"-0.00000961","NORAD_CAT_ID":"49731","MEAN_MOTION":"15.08830558"},{"INCLINATION":"53.2180","DECAY_DATE":null,"ECCENTRICITY":"0.00027520","TLE_LINE2":"2 49732  53.2180   8.6261 0002752  32.2755 327.8406 15.08839290 58850","OBJECT_ID":"2021-115J","REF_FRAME":"TEME","TLE_LINE1":"1 49732U 21115J   22360.31981746 -.00000677  00000-0 -24413-4 0  9997","FILE":"3722937","MEAN_ANOMALY":"327.8406","PERIOD":"95.438","OBJECT_TYPE":"PAYLOAD","RCS_SIZE":"LARGE","EPHEMERIS_TYPE":"0","LAUNCH_DATE":"2021-12-02","PERIAPSIS":"537.844","GP_ID":"221493188","COUNTRY_CODE":"US","SITE":"AFETR","RA_OF_ASC_NODE":"8.6261","ELEMENT_SET_NO":"999","BSTAR":"-0.00002441300000","MEAN_ELEMENT_THEORY":"SGP4","SEMIMAJOR_AXIS":"6917.883","TIME_SYSTEM":"UTC","MEAN_MOTION_DOT":"-0.00000677","CENTER_NAME":"EARTH","MEAN_MOTION":"15.08839290","NORAD_CAT_ID":"49732","EPOCH":"2022-12-26T07:40:32.228544","APOAPSIS":"541.651","ARG_OF_PERICENTER":"32.2755","MEAN_MOTION_DDOT":"0.0000000000000","OBJECT_NAME":"STARLINK-3246","CLASSIFICATION_TYPE":"U","REV_AT_EPOCH":"5885"},{"TIME_SYSTEM":"UTC","MEAN_MOTION_DOT":"-0.00000063","CENTER_NAME":"EARTH","NORAD_CAT_ID":"49733","MEAN_MOTION":"15.08843533","MEAN_ELEMENT_THEORY":"SGP4","SEMIMAJOR_AXIS":"6917.870","OBJECT_NAME":"STARLINK-3252","REV_AT_EPOCH":"5999","CLASSIFICATION_TYPE":"U","EPOCH":"2022-12-26T12:16:05.221056","APOAPSIS":"541.560","MEAN_MOTION_DDOT":"0.0000000000000","ARG_OF_PERICENTER":"27.4805","PERIOD":"95.437","OBJECT_TYPE":"PAYLOAD","INCLINATION":"53.2185","DECAY_DATE":null,"OBJECT_ID":"2021-115K","REF_FRAME":"TEME","TLE_LINE2":"2 49733  53.2185   7.7656 0002638  27.4805 332.6326 15.08843533 59995","ECCENTRICITY":"0.00026380","MEAN_ANOMALY":"332.6326","TLE_LINE1":"1 49733U 21115K   22360.51117154 -.00000063  00000-0  14163-4 0  9993","FILE":"3722810","SITE":"AFETR","RA_OF_ASC_NODE":"7.7656","BSTAR":"0.00001416300000","ELEMENT_SET_NO":"999","PERIAPSIS":"537.910","LAUNCH_DATE":"2021-12-02","RCS_SIZE":"LARGE","EPHEMERIS_TYPE":"0","GP_ID":"221466389","COUNTRY_CODE":"US"},{"OBJECT_NAME":"STARLINK-3238","CLASSIFICATION_TYPE":"U","REV_AT_EPOCH":"5906","EPOCH":"2022-12-26T17:30:04.166496","ARG_OF_PERICENTER":"31.7026","MEAN_MOTION_DDOT":"0.0000000000000","APOAPSIS":"541.581","CENTER_NAME":"EARTH","TIME_SYSTEM":"UTC","MEAN_MOTION_DOT":"0.00000480","MEAN_MOTION":"15.08841548","NORAD_CAT_ID":"49734","MEAN_ELEMENT_THEORY":"SGP4","SEMIMAJOR_AXIS":"6917.876","SITE":"AFETR","BSTAR":"0.00004828700000","ELEMENT_SET_NO":"999","RA_OF_ASC_NODE":"356.8074","EPHEMERIS_TYPE":"0","RCS_SIZE":"LARGE","PERIAPSIS":"537.901","LAUNCH_DATE":"2021-12-02","COUNTRY_CODE":"US","GP_ID":"221524716","PERIOD":"95.437","OBJECT_TYPE":"PAYLOAD","DECAY_DATE":null,"INCLINATION":"53.2189","MEAN_ANOMALY":"328.4126","TLE_LINE1":"1 49734U 21115L   22360.72921489  .00000480  00000-0  48287-4 0  9997","FILE":"3723236","ECCENTRICITY":"0.00026600","TLE_LINE2":"2 49734  53.2189 356.8074 0002660  31.7026 328.4126 15.08841548 59063","REF_FRAME":"TEME","OBJECT_ID":"2021-115L"},{"COUNTRY_CODE":"US","GP_ID":"221525468","RCS_SIZE":"LARGE","EPHEMERIS_TYPE":"0","PERIAPSIS":"538.015","LAUNCH_DATE":"2021-12-02","BSTAR":"0.00011988000000","ELEMENT_SET_NO":"999","RA_OF_ASC_NODE":"6.8584","SITE":"AFETR","MEAN_ANOMALY":"324.8970","TLE_LINE1":"1 49735U 21115M   22360.71356709  .00001620  00000-0  11988-3 0  9998","FILE":"3723236","TLE_LINE2":"2 49735  53.2189   6.8584 0002511  35.2187 324.8970 15.08837875 58912","ECCENTRICITY":"0.00025110","REF_FRAME":"TEME","OBJECT_ID":"2021-115M","DECAY_DATE":null,"INCLINATION":"53.2189","OBJECT_TYPE":"PAYLOAD","PERIOD":"95.438","ARG_OF_PERICENTER":"35.2187","MEAN_MOTION_DDOT":"0.0000000000000","APOAPSIS":"541.489","EPOCH":"2022-12-26T17:07:32.196576","CLASSIFICATION_TYPE":"U","REV_AT_EPOCH":"5891","OBJECT_NAME":"STARLINK-3113","SEMIMAJOR_AXIS":"6917.887","MEAN_ELEMENT_THEORY":"SGP4","MEAN_MOTION":"15.08837875","NORAD_CAT_ID":"49735","CENTER_NAME":"EARTH","MEAN_MOTION_DOT":"0.00001620","TIME_SYSTEM":"UTC"},{"SITE":"AFETR","ELEMENT_SET_NO":"999","BSTAR":"0.00005657700000","RA_OF_ASC_NODE":"356.7620","EPHEMERIS_TYPE":"0","RCS_SIZE":"LARGE","LAUNCH_DATE":"2021-12-02","PERIAPSIS":"537.923","COUNTRY_CODE":"US","GP_ID":"221526218","PERIOD":"95.437","OBJECT_TYPE":"PAYLOAD","DECAY_DATE":null,"INCLINATION":"53.2169","TLE_LINE1":"1 49736U 21115N   22360.73656710  .00000612  00000-0  56577-4 0  9990","FILE":"3723236","MEAN_ANOMALY":"327.6211","ECCENTRICITY":"0.00025900","TLE_LINE2":"2 49736  53.2169 356.7620 0002590  32.4940 327.6211 15.08850052 59060","OBJECT_ID":"2021-115N","REF_FRAME":"TEME","OBJECT_NAME":"STARLINK-3148","CLASSIFICATION_TYPE":"U","REV_AT_EPOCH":"5906","EPOCH":"2022-12-26T17:40:39.397440","ARG_OF_PERICENTER":"32.4940","MEAN_MOTION_DDOT":"0.0000000000000","APOAPSIS":"541.506","CENTER_NAME":"EARTH","MEAN_MOTION_DOT":"0.00000612","TIME_SYSTEM":"UTC","MEAN_MOTION":"15.08850052","NORAD_CAT_ID":"49736","SEMIMAJOR_AXIS":"6917.850","MEAN_ELEMENT_THEORY":"SGP4"},{"OBJECT_NAME":"STARLINK-3225","CLASSIFICATION_TYPE":"U","REV_AT_EPOCH":"5901","EPOCH":"2022-12-26T09:38:26.145600","APOAPSIS":"540.866","ARG_OF_PERICENTER":"58.5517","MEAN_MOTION_DDOT":"0.0000000000000","TIME_SYSTEM":"UTC","MEAN_MOTION_DOT":"0.00000701","CENTER_NAME":"EARTH","MEAN_MOTION":"15.08844112","NORAD_CAT_ID":"49737","SEMIMAJOR_AXIS":"6917.868","MEAN_ELEMENT_THEORY":"SGP4","SITE":"AFETR","RA_OF_ASC_NODE":"358.2627","BSTAR":"0.00006212600000","ELEMENT_SET_NO":"999","EPHEMERIS_TYPE":"0","RCS_SIZE":"LARGE","LAUNCH_DATE":"2021-12-02","PERIAPSIS":"538.600","GP_ID":"221491438","COUNTRY_CODE":"US","PERIOD":"95.437","OBJECT_TYPE":"PAYLOAD","INCLINATION":"53.2168","DECAY_DATE":null,"TLE_LINE2":"2 49737  53.2168 358.2627 0001638  58.5517 301.5636 15.08844112 59012","ECCENTRICITY":"0.00016380","REF_FRAME":"TEME","OBJECT_ID":"2021-115P","TLE_LINE1":"1 49737U 21115P   22360.40169150  .00000701  00000-0  62126-4 0  9998","FILE":"3722937","MEAN_ANOMALY":"301.5636"}];
